{
  "type": "FeatureCollection",
  "features": [
    {
      "type": "Feature",
      "properties": {
        "norad_id": 35902,
        "name": "COSMOS 2251 DEB",
        "group": "cosmos-2251-debris",
        "lat": 3.518036141332686,
        "lon": 58.16889994792913,
        "alt_km": 877.4444330260158,
        "timestamp": "2025-12-10T04:57:30.018796+00:00",
        "meta_object_name": "COSMOS 2251 DEB",
        "meta_object_id": "1993-036AUR",
        "meta_epoch": "2025-12-07T23:58:19.658496",
        "meta_mean_motion": 14.26862668,
        "meta_eccentricity": 0.01019224,
        "meta_inclination": 73.9832,
        "meta_ra_of_asc_node": 243.186,
        "meta_arg_of_pericenter": 358.8404,
        "meta_mean_anomaly": 1.2491,
        "meta_ephemeris_type": 0,
        "meta_classification_type": "U",
        "meta_norad_cat_id": 35902,
        "meta_element_set_no": 999,
        "meta_rev_at_epoch": 61062,
        "meta_bstar": 0.0016367935,
        "meta_mean_motion_dot": 4.172e-05,
        "meta_mean_motion_ddot": 0,
        "tle_line1": "1 35902U 93036AUR 25341.99883864  .00004172  00000+0  16368-2 0  9999",
        "tle_line2": "2 35902  73.9832 243.1860 0101922 358.8404   1.2491 14.26862668610625"
      },
      "geometry": {
        "type": "Point",
        "coordinates": [
          58.16889994792913,
          3.518036141332686
        ]
      }
    },
    {
      "type": "Feature",
      "properties": {
        "norad_id": 35905,
        "name": "COSMOS 2251 DEB",
        "group": "cosmos-2251-debris",
        "lat": -10.890411856438933,
        "lon": 39.11382979440248,
        "alt_km": 590.2770220654875,
        "timestamp": "2025-12-10T04:57:30.018806+00:00",
        "meta_object_name": "COSMOS 2251 DEB",
        "meta_object_id": "1993-036AUU",
        "meta_epoch": "2025-12-09T08:52:40.693152",
        "meta_mean_motion": 14.98948103,
        "meta_eccentricity": 0.0090867,
        "meta_inclination": 74.0312,
        "meta_ra_of_asc_node": 217.6533,
        "meta_arg_of_pericenter": 298.4996,
        "meta_mean_anomaly": 60.7061,
        "meta_ephemeris_type": 0,
        "meta_classification_type": "U",
        "meta_norad_cat_id": 35905,
        "meta_element_set_no": 999,
        "meta_rev_at_epoch": 88532,
        "meta_bstar": 0.00069223157,
        "meta_mean_motion_dot": 9.099e-05,
        "meta_mean_motion_ddot": 0,
        "tle_line1": "1 35905U 93036AUU 25343.36991543  .00009099  00000+0  69223-3 0  9991",
        "tle_line2": "2 35905  74.0312 217.6533 0090867 298.4996  60.7061 14.98948103885328"
      },
      "geometry": {
        "type": "Point",
        "coordinates": [
          39.11382979440248,
          -10.890411856438933
        ]
      }
    },
    {
      "type": "Feature",
      "properties": {
        "norad_id": 35959,
        "name": "COSMOS 2251 DEB",
        "group": "cosmos-2251-debris",
        "lat": -14.63471758840781,
        "lon": 140.98938629245387,
        "alt_km": 796.3823503266667,
        "timestamp": "2025-12-10T04:57:30.018816+00:00",
        "meta_object_name": "COSMOS 2251 DEB",
        "meta_object_id": "1993-036AUZ",
        "meta_epoch": "2025-12-09T16:20:00.715776",
        "meta_mean_motion": 14.34132745,
        "meta_eccentricity": 0.0021434,
        "meta_inclination": 74.0323,
        "meta_ra_of_asc_node": 317.6642,
        "meta_arg_of_pericenter": 39.0649,
        "meta_mean_anomaly": 321.2045,
        "meta_ephemeris_type": 0,
        "meta_classification_type": "U",
        "meta_norad_cat_id": 35959,
        "meta_element_set_no": 999,
        "meta_rev_at_epoch": 84884,
        "meta_bstar": 0.00022588,
        "meta_mean_motion_dot": 6.08e-06,
        "meta_mean_motion_ddot": 0,
        "tle_line1": "1 35959U 93036AUZ 25343.68056384  .00000608  00000+0  22588-3 0  9990",
        "tle_line2": "2 35959  74.0323 317.6642 0021434  39.0649 321.2045 14.34132745848849"
      },
      "geometry": {
        "type": "Point",
        "coordinates": [
          140.98938629245387,
          -14.63471758840781
        ]
      }
    },
    {
      "type": "Feature",
      "properties": {
        "norad_id": 35961,
        "name": "COSMOS 2251 DEB",
        "group": "cosmos-2251-debris",
        "lat": 25.11820275328068,
        "lon": -143.59845399804243,
        "alt_km": 933.7265593517477,
        "timestamp": "2025-12-10T04:57:30.018826+00:00",
        "meta_object_name": "COSMOS 2251 DEB",
        "meta_object_id": "1993-036AVB",
        "meta_epoch": "2025-12-08T23:47:16.046880",
        "meta_mean_motion": 14.05362993,
        "meta_eccentricity": 0.0192085,
        "meta_inclination": 73.9243,
        "meta_ra_of_asc_node": 210.7691,
        "meta_arg_of_pericenter": 145.0168,
        "meta_mean_anomaly": 216.3768,
        "meta_ephemeris_type": 0,
        "meta_classification_type": "U",
        "meta_norad_cat_id": 35961,
        "meta_element_set_no": 999,
        "meta_rev_at_epoch": 62629,
        "meta_bstar": 0.0010036,
        "meta_mean_motion_dot": 1.896e-05,
        "meta_mean_motion_ddot": 0,
        "tle_line1": "1 35961U 93036AVB 25342.99115795  .00001896  00000+0  10036-2 0  9992",
        "tle_line2": "2 35961  73.9243 210.7691 0192085 145.0168 216.3768 14.05362993626290"
      },
      "geometry": {
        "type": "Point",
        "coordinates": [
          -143.59845399804243,
          25.11820275328068
        ]
      }
    },
    {
      "type": "Feature",
      "properties": {
        "norad_id": 35979,
        "name": "COSMOS 2251 DEB",
        "group": "cosmos-2251-debris",
        "lat": 5.629218973267377,
        "lon": -115.04032191457574,
        "alt_km": 607.6574091070197,
        "timestamp": "2025-12-10T04:57:30.018837+00:00",
        "meta_object_name": "COSMOS 2251 DEB",
        "meta_object_id": "1993-036AVV",
        "meta_epoch": "2025-12-09T11:50:03.223968",
        "meta_mean_motion": 14.74576302,
        "meta_eccentricity": 0.00588204,
        "meta_inclination": 74.0104,
        "meta_ra_of_asc_node": 244.7352,
        "meta_arg_of_pericenter": 17.6471,
        "meta_mean_anomaly": 162.3797,
        "meta_ephemeris_type": 0,
        "meta_classification_type": "U",
        "meta_norad_cat_id": 35979,
        "meta_element_set_no": 999,
        "meta_rev_at_epoch": 88585,
        "meta_bstar": 0.0014101379,
        "meta_mean_motion_dot": 9.639e-05,
        "meta_mean_motion_ddot": 0,
        "tle_line1": "1 35979U 93036AVV 25343.49309287  .00009639  00000+0  14101-2 0  9998",
        "tle_line2": "2 35979  74.0104 244.7352 0058820  17.6471 162.3797 14.74576302885855"
      },
      "geometry": {
        "type": "Point",
        "coordinates": [
          -115.04032191457574,
          5.629218973267377
        ]
      }
    },
    {
      "type": "Feature",
      "properties": {
        "norad_id": 35980,
        "name": "COSMOS 2251 DEB",
        "group": "cosmos-2251-debris",
        "lat": 23.186918169950413,
        "lon": 134.65334510997184,
        "alt_km": 715.2437956259218,
        "timestamp": "2025-12-10T04:57:30.018847+00:00",
        "meta_object_name": "COSMOS 2251 DEB",
        "meta_object_id": "1993-036AVW",
        "meta_epoch": "2025-12-02T19:08:08.015136",
        "meta_mean_motion": 14.59062146,
        "meta_eccentricity": 0.00537712,
        "meta_inclination": 73.91,
        "meta_ra_of_asc_node": 141.7735,
        "meta_arg_of_pericenter": 277.5645,
        "meta_mean_anomaly": 81.9413,
        "meta_ephemeris_type": 0,
        "meta_classification_type": "U",
        "meta_norad_cat_id": 35980,
        "meta_element_set_no": 999,
        "meta_rev_at_epoch": 61341,
        "meta_bstar": 0.002036555,
        "meta_mean_motion_dot": 9.752e-05,
        "meta_mean_motion_ddot": 0,
        "tle_line1": "1 35980U 93036AVW 25336.79731499  .00009752  00000+0  20366-2 0  9995",
        "tle_line2": "2 35980  73.9100 141.7735 0053771 277.5645  81.9413 14.59062146613413"
      },
      "geometry": {
        "type": "Point",
        "coordinates": [
          134.65334510997184,
          23.186918169950413
        ]
      }
    },
    {
      "type": "Feature",
      "properties": {
        "norad_id": 35982,
        "name": "COSMOS 2251 DEB",
        "group": "cosmos-2251-debris",
        "lat": -72.90643504206633,
        "lon": -76.57348716017673,
        "alt_km": 727.2031429847175,
        "timestamp": "2025-12-10T04:57:30.018856+00:00",
        "meta_object_name": "COSMOS 2251 DEB",
        "meta_object_id": "1993-036AVY",
        "meta_epoch": "2025-12-08T10:39:50.053248",
        "meta_mean_motion": 14.62714143,
        "meta_eccentricity": 0.00640459,
        "meta_inclination": 74.0585,
        "meta_ra_of_asc_node": 355.1514,
        "meta_arg_of_pericenter": 62.7677,
        "meta_mean_anomaly": 297.9996,
        "meta_ephemeris_type": 0,
        "meta_classification_type": "U",
        "meta_norad_cat_id": 35982,
        "meta_element_set_no": 999,
        "meta_rev_at_epoch": 86103,
        "meta_bstar": 0.00083154209,
        "meta_mean_motion_dot": 4.334e-05,
        "meta_mean_motion_ddot": 0,
        "tle_line1": "1 35982U 93036AVY 25342.44432932  .00004334  00000+0  83154-3 0  9992",
        "tle_line2": "2 35982  74.0585 355.1514 0064045  62.7677 297.9996 14.62714143861038"
      },
      "geometry": {
        "type": "Point",
        "coordinates": [
          -76.57348716017673,
          -72.90643504206633
        ]
      }
    }
  ]
}